ORBCOMM FM115           
1 41186U 15081H   25081.28293750  .00003190  00000+0  66078-3 0  9999
2 41186  46.9969  92.8114 0001337 316.2676  43.8105 14.62244693495050
ORBCOMM FM108           
1 41187U 15081J   25081.55588695  .00003626  00000+0  81833-3 0  9995
2 41187  47.0028 156.0347 0003831 267.6937  92.3509 14.57965495494151
ORBCOMM FM117           
1 41188U 15081K   25081.59068499  .00003564  00000+0  80513-3 0  9990
2 41188  46.9991 154.6620 0004206 274.7625  85.2780 14.57963557494202
ORBCOMM FM116           
1 41189U 15081L   25081.58181764  .00002850  00000+0  65192-3 0  9994
2 41189  47.0003 244.5691 0001201 335.8791  24.2037 14.57914114493012
